{
  "type": "FeatureCollection",
  "name": "Kerala_Central_Region_Administrative_GIS_Map_WGS84",
  "crs": {
    "type": "name",
    "properties": {
      "name": "urn:ogc:def:crs:OGC:1.3:CRS84"
    }
  },
  "properties": {
    "region": "Central Kerala Administrative Region",
    "state": "Kerala",
    "stateLgdCode": 32,
    "primaryDistrict": "Kottayam",
    "adjacentDistricts": [
      "Ernakulam",
      "Idukki",
      "Alappuzha",
      "Pathanamthitta"
    ],
    "geodeticDatum": "WGS84"
  },
  "features": [
    {
      "type": "Feature",
      "id": "district_kottayam",
      "properties": {
        "adminLevel": 5,
        "adminType": "district",
        "name": "Kottayam",
        "district": "Kottayam",
        "lgdCode": 560,
        "census2011Code": 592,
        "center": [
          76.58,
          9.6
        ],
        "areaKm2": 2208,
        "population": 1974551,
        "headquarters": "Kottayam Civil Station",
        "isPrimaryDistrict": true
      },
      "geometry": {
        "type": "Polygon",
        "coordinates": [
          [
            [
              76.36,
              9.68
            ],
            [
              76.345,
              9.72
            ],
            [
              76.34,
              9.77
            ],
            [
              76.35,
              9.82
            ],
            [
              76.38,
              9.85
            ],
            [
              76.43,
              9.85
            ],
            [
              76.48,
              9.84
            ],
            [
              76.53,
              9.82
            ],
            [
              76.58,
              9.84
            ],
            [
              76.65,
              9.84
            ],
            [
              76.72,
              9.81
            ],
            [
              76.78,
              9.78
            ],
            [
              76.84,
              9.75
            ],
            [
              76.89,
              9.71
            ],
            [
              76.88,
              9.65
            ],
            [
              76.85,
              9.62
            ],
            [
              76.89,
              9.58
            ],
            [
              76.92,
              9.52
            ],
            [
              76.92,
              9.45
            ],
            [
              76.88,
              9.39
            ],
            [
              76.82,
              9.36
            ],
            [
              76.75,
              9.35
            ],
            [
              76.68,
              9.34
            ],
            [
              76.64,
              9.34
            ],
            [
              76.58,
              9.35
            ],
            [
              76.52,
              9.36
            ],
            [
              76.46,
              9.38
            ],
            [
              76.44,
              9.43
            ],
            [
              76.44,
              9.5
            ],
            [
              76.41,
              9.54
            ],
            [
              76.39,
              9.58
            ],
            [
              76.38,
              9.62
            ],
            [
              76.38,
              9.67
            ],
            [
              76.36,
              9.68
            ]
          ]
        ]
      }
    },
    {
      "type": "Feature",
      "id": "taluk_vaikom",
      "properties": {
        "adminLevel": 6,
        "adminType": "taluk",
        "name": "Vaikom Taluk",
        "taluk": "Vaikom",
        "district": "Kottayam",
        "lgdCode": "05631",
        "census2011Code": "05631",
        "color": "#e8a598",
        "center": [
          76.435,
          9.755
        ],
        "headquarters": "Vaikom Taluk Office",
        "areaKm2": 220,
        "population": 320000,
        "isPrimaryDistrict": true
      },
      "geometry": {
        "type": "Polygon",
        "coordinates": [
          [
            [
              76.36,
              9.68
            ],
            [
              76.345,
              9.72
            ],
            [
              76.34,
              9.77
            ],
            [
              76.35,
              9.82
            ],
            [
              76.38,
              9.85
            ],
            [
              76.43,
              9.85
            ],
            [
              76.48,
              9.84
            ],
            [
              76.53,
              9.82
            ],
            [
              76.52,
              9.76
            ],
            [
              76.51,
              9.71
            ],
            [
              76.49,
              9.68
            ],
            [
              76.43,
              9.67
            ],
            [
              76.38,
              9.67
            ],
            [
              76.36,
              9.68
            ]
          ]
        ]
      }
    },
    {
      "type": "Feature",
      "id": "village_79",
      "properties": {
        "adminLevel": 7,
        "adminType": "village",
        "villageNumber": 79,
        "name": "Naduvile",
        "taluk": "Vaikom",
        "district": "Kottayam",
        "color": "#e8a598",
        "center": [
          76.37,
          9.82
        ],
        "isPrimaryDistrict": true
      },
      "geometry": {
        "type": "Polygon",
        "coordinates": [
          [
            [
              76.348,
              9.802
            ],
            [
              76.392,
              9.802
            ],
            [
              76.3898,
              9.838
            ],
            [
              76.3502,
              9.838
            ],
            [
              76.348,
              9.802
            ]
          ]
        ]
      }
    },
    {
      "type": "Feature",
      "id": "village_80",
      "properties": {
        "adminLevel": 7,
        "adminType": "village",
        "villageNumber": 80,
        "name": "Vaikom",
        "taluk": "Vaikom",
        "district": "Kottayam",
        "color": "#e8a598",
        "center": [
          76.4,
          9.82
        ],
        "isPrimaryDistrict": true
      },
      "geometry": {
        "type": "Polygon",
        "coordinates": [
          [
            [
              76.378,
              9.802
            ],
            [
              76.422,
              9.802
            ],
            [
              76.4198,
              9.838
            ],
            [
              76.3802,
              9.838
            ],
            [
              76.378,
              9.802
            ]
          ]
        ]
      }
    },
    {
      "type": "Feature",
      "id": "village_81",
      "properties": {
        "adminLevel": 7,
        "adminType": "village",
        "villageNumber": 81,
        "name": "Udayanapuram",
        "taluk": "Vaikom",
        "district": "Kottayam",
        "color": "#e8a598",
        "center": [
          76.43,
          9.82
        ],
        "isPrimaryDistrict": true
      },
      "geometry": {
        "type": "Polygon",
        "coordinates": [
          [
            [
              76.408,
              9.802
            ],
            [
              76.452,
              9.802
            ],
            [
              76.4498,
              9.838
            ],
            [
              76.4102,
              9.838
            ],
            [
              76.408,
              9.802
            ]
          ]
        ]
      }
    },
    {
      "type": "Feature",
      "id": "village_82",
      "properties": {
        "adminLevel": 7,
        "adminType": "village",
        "villageNumber": 82,
        "name": "Vadakkemuri",
        "taluk": "Vaikom",
        "district": "Kottayam",
        "color": "#e8a598",
        "center": [
          76.47,
          9.82
        ],
        "isPrimaryDistrict": true
      },
      "geometry": {
        "type": "Polygon",
        "coordinates": [
          [
            [
              76.448,
              9.802
            ],
            [
              76.492,
              9.802
            ],
            [
              76.4898,
              9.838
            ],
            [
              76.4502,
              9.838
            ],
            [
              76.448,
              9.802
            ]
          ]
        ]
      }
    },
    {
      "type": "Feature",
      "id": "village_83",
      "properties": {
        "adminLevel": 7,
        "adminType": "village",
        "villageNumber": 83,
        "name": "Kulasekharamangalam",
        "taluk": "Vaikom",
        "district": "Kottayam",
        "color": "#e8a598",
        "center": [
          76.51,
          9.82
        ],
        "isPrimaryDistrict": true
      },
      "geometry": {
        "type": "Polygon",
        "coordinates": [
          [
            [
              76.488,
              9.802
            ],
            [
              76.532,
              9.802
            ],
            [
              76.5298,
              9.838
            ],
            [
              76.4902,
              9.838
            ],
            [
              76.488,
              9.802
            ]
          ]
        ]
      }
    },
    {
      "type": "Feature",
      "id": "village_84",
      "properties": {
        "adminLevel": 7,
        "adminType": "village",
        "villageNumber": 84,
        "name": "Chemmanathukara",
        "taluk": "Vaikom",
        "district": "Kottayam",
        "color": "#e8a598",
        "center": [
          76.37,
          9.76
        ],
        "isPrimaryDistrict": true
      },
      "geometry": {
        "type": "Polygon",
        "coordinates": [
          [
            [
              76.348,
              9.742
            ],
            [
              76.392,
              9.742
            ],
            [
              76.3898,
              9.778
            ],
            [
              76.3502,
              9.778
            ],
            [
              76.348,
              9.742
            ]
          ]
        ]
      }
    },
    {
      "type": "Feature",
      "id": "village_85",
      "properties": {
        "adminLevel": 7,
        "adminType": "village",
        "villageNumber": 85,
        "name": "Velloor",
        "taluk": "Vaikom",
        "district": "Kottayam",
        "color": "#e8a598",
        "center": [
          76.42,
          9.76
        ],
        "isPrimaryDistrict": true
      },
      "geometry": {
        "type": "Polygon",
        "coordinates": [
          [
            [
              76.398,
              9.742
            ],
            [
              76.442,
              9.742
            ],
            [
              76.4398,
              9.778
            ],
            [
              76.4002,
              9.778
            ],
            [
              76.398,
              9.742
            ]
          ]
        ]
      }
    },
    {
      "type": "Feature",
      "id": "village_86",
      "properties": {
        "adminLevel": 7,
        "adminType": "village",
        "villageNumber": 86,
        "name": "Manjoor",
        "taluk": "Vaikom",
        "district": "Kottayam",
        "color": "#e8a598",
        "center": [
          76.47,
          9.76
        ],
        "isPrimaryDistrict": true
      },
      "geometry": {
        "type": "Polygon",
        "coordinates": [
          [
            [
              76.448,
              9.742
            ],
            [
              76.492,
              9.742
            ],
            [
              76.4898,
              9.778
            ],
            [
              76.4502,
              9.778
            ],
            [
              76.448,
              9.742
            ]
          ]
        ]
      }
    },
    {
      "type": "Feature",
      "id": "village_87",
      "properties": {
        "adminLevel": 7,
        "adminType": "village",
        "villageNumber": 87,
        "name": "Kaduthuruthy",
        "taluk": "Vaikom",
        "district": "Kottayam",
        "color": "#e8a598",
        "center": [
          76.51,
          9.76
        ],
        "isPrimaryDistrict": true
      },
      "geometry": {
        "type": "Polygon",
        "coordinates": [
          [
            [
              76.488,
              9.742
            ],
            [
              76.532,
              9.742
            ],
            [
              76.5298,
              9.778
            ],
            [
              76.4902,
              9.778
            ],
            [
              76.488,
              9.742
            ]
          ]
        ]
      }
    },
    {
      "type": "Feature",
      "id": "village_88",
      "properties": {
        "adminLevel": 7,
        "adminType": "village",
        "villageNumber": 88,
        "name": "Memuri",
        "taluk": "Vaikom",
        "district": "Kottayam",
        "color": "#e8a598",
        "center": [
          76.38,
          9.71
        ],
        "isPrimaryDistrict": true
      },
      "geometry": {
        "type": "Polygon",
        "coordinates": [
          [
            [
              76.358,
              9.692
            ],
            [
              76.402,
              9.692
            ],
            [
              76.3998,
              9.728
            ],
            [
              76.3602,
              9.728
            ],
            [
              76.358,
              9.692
            ]
          ]
        ]
      }
    },
    {
      "type": "Feature",
      "id": "village_89",
      "properties": {
        "adminLevel": 7,
        "adminType": "village",
        "villageNumber": 89,
        "name": "Mulakkulam",
        "taluk": "Vaikom",
        "district": "Kottayam",
        "color": "#e8a598",
        "center": [
          76.43,
          9.71
        ],
        "isPrimaryDistrict": true
      },
      "geometry": {
        "type": "Polygon",
        "coordinates": [
          [
            [
              76.408,
              9.692
            ],
            [
              76.452,
              9.692
            ],
            [
              76.4498,
              9.728
            ],
            [
              76.4102,
              9.728
            ],
            [
              76.408,
              9.692
            ]
          ]
        ]
      }
    },
    {
      "type": "Feature",
      "id": "village_90",
      "properties": {
        "adminLevel": 7,
        "adminType": "village",
        "villageNumber": 90,
        "name": "Muttuchira",
        "taluk": "Vaikom",
        "district": "Kottayam",
        "color": "#e8a598",
        "center": [
          76.48,
          9.71
        ],
        "isPrimaryDistrict": true
      },
      "geometry": {
        "type": "Polygon",
        "coordinates": [
          [
            [
              76.458,
              9.692
            ],
            [
              76.502,
              9.692
            ],
            [
              76.4998,
              9.728
            ],
            [
              76.4602,
              9.728
            ],
            [
              76.458,
              9.692
            ]
          ]
        ]
      }
    },
    {
      "type": "Feature",
      "id": "village_91",
      "properties": {
        "adminLevel": 7,
        "adminType": "village",
        "villageNumber": 91,
        "name": "Njeezhoor",
        "taluk": "Vaikom",
        "district": "Kottayam",
        "color": "#e8a598",
        "center": [
          76.39,
          9.68
        ],
        "isPrimaryDistrict": true
      },
      "geometry": {
        "type": "Polygon",
        "coordinates": [
          [
            [
              76.368,
              9.662
            ],
            [
              76.412,
              9.662
            ],
            [
              76.4098,
              9.698
            ],
            [
              76.3702,
              9.698
            ],
            [
              76.368,
              9.662
            ]
          ]
        ]
      }
    },
    {
      "type": "Feature",
      "id": "village_92",
      "properties": {
        "adminLevel": 7,
        "adminType": "village",
        "villageNumber": 92,
        "name": "Kuravilangad",
        "taluk": "Vaikom",
        "district": "Kottayam",
        "color": "#e8a598",
        "center": [
          76.44,
          9.68
        ],
        "isPrimaryDistrict": true
      },
      "geometry": {
        "type": "Polygon",
        "coordinates": [
          [
            [
              76.418,
              9.662
            ],
            [
              76.462,
              9.662
            ],
            [
              76.4598,
              9.698
            ],
            [
              76.4202,
              9.698
            ],
            [
              76.418,
              9.662
            ]
          ]
        ]
      }
    },
    {
      "type": "Feature",
      "id": "village_93",
      "properties": {
        "adminLevel": 7,
        "adminType": "village",
        "villageNumber": 93,
        "name": "Kanakkary",
        "taluk": "Vaikom",
        "district": "Kottayam",
        "color": "#e8a598",
        "center": [
          76.47,
          9.68
        ],
        "isPrimaryDistrict": true
      },
      "geometry": {
        "type": "Polygon",
        "coordinates": [
          [
            [
              76.448,
              9.662
            ],
            [
              76.492,
              9.662
            ],
            [
              76.4898,
              9.698
            ],
            [
              76.4502,
              9.698
            ],
            [
              76.448,
              9.662
            ]
          ]
        ]
      }
    },
    {
      "type": "Feature",
      "id": "taluk_meenachil",
      "properties": {
        "adminLevel": 6,
        "adminType": "taluk",
        "name": "Meenachil Taluk",
        "taluk": "Meenachil",
        "district": "Kottayam",
        "lgdCode": "05632",
        "census2011Code": "05632",
        "color": "#c8e6c9",
        "center": [
          76.69,
          9.72
        ],
        "headquarters": "Pala Taluk Office",
        "areaKm2": 440,
        "population": 410000,
        "isPrimaryDistrict": true
      },
      "geometry": {
        "type": "Polygon",
        "coordinates": [
          [
            [
              76.53,
              9.82
            ],
            [
              76.58,
              9.84
            ],
            [
              76.65,
              9.84
            ],
            [
              76.72,
              9.81
            ],
            [
              76.78,
              9.78
            ],
            [
              76.84,
              9.75
            ],
            [
              76.89,
              9.71
            ],
            [
              76.88,
              9.65
            ],
            [
              76.85,
              9.62
            ],
            [
              76.78,
              9.62
            ],
            [
              76.72,
              9.63
            ],
            [
              76.64,
              9.63
            ],
            [
              76.58,
              9.64
            ],
            [
              76.52,
              9.65
            ],
            [
              76.49,
              9.68
            ],
            [
              76.51,
              9.71
            ],
            [
              76.52,
              9.76
            ],
            [
              76.53,
              9.82
            ]
          ]
        ]
      }
    },
    {
      "type": "Feature",
      "id": "village_53",
      "properties": {
        "adminLevel": 7,
        "adminType": "village",
        "villageNumber": 53,
        "name": "Moonnilavu",
        "taluk": "Meenachil",
        "district": "Kottayam",
        "color": "#c8e6c9",
        "center": [
          76.57,
          9.8
        ],
        "isPrimaryDistrict": true
      },
      "geometry": {
        "type": "Polygon",
        "coordinates": [
          [
            [
              76.548,
              9.782
            ],
            [
              76.592,
              9.782
            ],
            [
              76.5898,
              9.818
            ],
            [
              76.5502,
              9.818
            ],
            [
              76.548,
              9.782
            ]
          ]
        ]
      }
    },
    {
      "type": "Feature",
      "id": "village_54",
      "properties": {
        "adminLevel": 7,
        "adminType": "village",
        "villageNumber": 54,
        "name": "Melukavu",
        "taluk": "Meenachil",
        "district": "Kottayam",
        "color": "#c8e6c9",
        "center": [
          76.63,
          9.8
        ],
        "isPrimaryDistrict": true
      },
      "geometry": {
        "type": "Polygon",
        "coordinates": [
          [
            [
              76.608,
              9.782
            ],
            [
              76.652,
              9.782
            ],
            [
              76.6498,
              9.818
            ],
            [
              76.6102,
              9.818
            ],
            [
              76.608,
              9.782
            ]
          ]
        ]
      }
    },
    {
      "type": "Feature",
      "id": "village_55",
      "properties": {
        "adminLevel": 7,
        "adminType": "village",
        "villageNumber": 55,
        "name": "Teekoy",
        "taluk": "Meenachil",
        "district": "Kottayam",
        "color": "#c8e6c9",
        "center": [
          76.7,
          9.8
        ],
        "isPrimaryDistrict": true
      },
      "geometry": {
        "type": "Polygon",
        "coordinates": [
          [
            [
              76.678,
              9.782
            ],
            [
              76.722,
              9.782
            ],
            [
              76.7198,
              9.818
            ],
            [
              76.6802,
              9.818
            ],
            [
              76.678,
              9.782
            ]
          ]
        ]
      }
    },
    {
      "type": "Feature",
      "id": "village_56",
      "properties": {
        "adminLevel": 7,
        "adminType": "village",
        "villageNumber": 56,
        "name": "Bharananganam",
        "taluk": "Meenachil",
        "district": "Kottayam",
        "color": "#c8e6c9",
        "center": [
          76.77,
          9.77
        ],
        "isPrimaryDistrict": true
      },
      "geometry": {
        "type": "Polygon",
        "coordinates": [
          [
            [
              76.748,
              9.752
            ],
            [
              76.792,
              9.752
            ],
            [
              76.7898,
              9.788
            ],
            [
              76.7502,
              9.788
            ],
            [
              76.748,
              9.752
            ]
          ]
        ]
      }
    },
    {
      "type": "Feature",
      "id": "village_57",
      "properties": {
        "adminLevel": 7,
        "adminType": "village",
        "villageNumber": 57,
        "name": "Kondoor",
        "taluk": "Meenachil",
        "district": "Kottayam",
        "color": "#c8e6c9",
        "center": [
          76.83,
          9.74
        ],
        "isPrimaryDistrict": true
      },
      "geometry": {
        "type": "Polygon",
        "coordinates": [
          [
            [
              76.808,
              9.722
            ],
            [
              76.852,
              9.722
            ],
            [
              76.8498,
              9.758
            ],
            [
              76.8102,
              9.758
            ],
            [
              76.808,
              9.722
            ]
          ]
        ]
      }
    },
    {
      "type": "Feature",
      "id": "village_58",
      "properties": {
        "adminLevel": 7,
        "adminType": "village",
        "villageNumber": 58,
        "name": "Poonjar Thekkekara",
        "taluk": "Meenachil",
        "district": "Kottayam",
        "color": "#c8e6c9",
        "center": [
          76.87,
          9.7
        ],
        "isPrimaryDistrict": true
      },
      "geometry": {
        "type": "Polygon",
        "coordinates": [
          [
            [
              76.848,
              9.682
            ],
            [
              76.892,
              9.682
            ],
            [
              76.8898,
              9.718
            ],
            [
              76.8502,
              9.718
            ],
            [
              76.848,
              9.682
            ]
          ]
        ]
      }
    },
    {
      "type": "Feature",
      "id": "village_59",
      "properties": {
        "adminLevel": 7,
        "adminType": "village",
        "villageNumber": 59,
        "name": "Meenachil",
        "taluk": "Meenachil",
        "district": "Kottayam",
        "color": "#c8e6c9",
        "center": [
          76.56,
          9.74
        ],
        "isPrimaryDistrict": true
      },
      "geometry": {
        "type": "Polygon",
        "coordinates": [
          [
            [
              76.538,
              9.722
            ],
            [
              76.582,
              9.722
            ],
            [
              76.5798,
              9.758
            ],
            [
              76.5402,
              9.758
            ],
            [
              76.538,
              9.722
            ]
          ]
        ]
      }
    },
    {
      "type": "Feature",
      "id": "village_60",
      "properties": {
        "adminLevel": 7,
        "adminType": "village",
        "villageNumber": 60,
        "name": "Pala Municipality",
        "taluk": "Meenachil",
        "district": "Kottayam",
        "color": "#c8e6c9",
        "center": [
          76.63,
          9.74
        ],
        "isPrimaryDistrict": true
      },
      "geometry": {
        "type": "Polygon",
        "coordinates": [
          [
            [
              76.608,
              9.722
            ],
            [
              76.652,
              9.722
            ],
            [
              76.6498,
              9.758
            ],
            [
              76.6102,
              9.758
            ],
            [
              76.608,
              9.722
            ]
          ]
        ]
      }
    },
    {
      "type": "Feature",
      "id": "village_61",
      "properties": {
        "adminLevel": 7,
        "adminType": "village",
        "villageNumber": 61,
        "name": "Lalam",
        "taluk": "Meenachil",
        "district": "Kottayam",
        "color": "#c8e6c9",
        "center": [
          76.69,
          9.74
        ],
        "isPrimaryDistrict": true
      },
      "geometry": {
        "type": "Polygon",
        "coordinates": [
          [
            [
              76.668,
              9.722
            ],
            [
              76.712,
              9.722
            ],
            [
              76.7098,
              9.758
            ],
            [
              76.6702,
              9.758
            ],
            [
              76.668,
              9.722
            ]
          ]
        ]
      }
    },
    {
      "type": "Feature",
      "id": "village_62",
      "properties": {
        "adminLevel": 7,
        "adminType": "village",
        "villageNumber": 62,
        "name": "Puliyannoor",
        "taluk": "Meenachil",
        "district": "Kottayam",
        "color": "#c8e6c9",
        "center": [
          76.75,
          9.72
        ],
        "isPrimaryDistrict": true
      },
      "geometry": {
        "type": "Polygon",
        "coordinates": [
          [
            [
              76.728,
              9.702
            ],
            [
              76.772,
              9.702
            ],
            [
              76.7698,
              9.738
            ],
            [
              76.7302,
              9.738
            ],
            [
              76.728,
              9.702
            ]
          ]
        ]
      }
    },
    {
      "type": "Feature",
      "id": "village_63",
      "properties": {
        "adminLevel": 7,
        "adminType": "village",
        "villageNumber": 63,
        "name": "Poovarany",
        "taluk": "Meenachil",
        "district": "Kottayam",
        "color": "#c8e6c9",
        "center": [
          76.82,
          9.69
        ],
        "isPrimaryDistrict": true
      },
      "geometry": {
        "type": "Polygon",
        "coordinates": [
          [
            [
              76.798,
              9.672
            ],
            [
              76.842,
              9.672
            ],
            [
              76.8398,
              9.708
            ],
            [
              76.8002,
              9.708
            ],
            [
              76.798,
              9.672
            ]
          ]
        ]
      }
    },
    {
      "type": "Feature",
      "id": "village_64",
      "properties": {
        "adminLevel": 7,
        "adminType": "village",
        "villageNumber": 64,
        "name": "Erattupetta",
        "taluk": "Meenachil",
        "district": "Kottayam",
        "color": "#c8e6c9",
        "center": [
          76.78,
          9.68
        ],
        "isPrimaryDistrict": true
      },
      "geometry": {
        "type": "Polygon",
        "coordinates": [
          [
            [
              76.758,
              9.662
            ],
            [
              76.802,
              9.662
            ],
            [
              76.7998,
              9.698
            ],
            [
              76.7602,
              9.698
            ],
            [
              76.758,
              9.662
            ]
          ]
        ]
      }
    },
    {
      "type": "Feature",
      "id": "village_65",
      "properties": {
        "adminLevel": 7,
        "adminType": "village",
        "villageNumber": 65,
        "name": "Thalappalam",
        "taluk": "Meenachil",
        "district": "Kottayam",
        "color": "#c8e6c9",
        "center": [
          76.56,
          9.68
        ],
        "isPrimaryDistrict": true
      },
      "geometry": {
        "type": "Polygon",
        "coordinates": [
          [
            [
              76.538,
              9.662
            ],
            [
              76.582,
              9.662
            ],
            [
              76.5798,
              9.698
            ],
            [
              76.5402,
              9.698
            ],
            [
              76.538,
              9.662
            ]
          ]
        ]
      }
    },
    {
      "type": "Feature",
      "id": "village_66",
      "properties": {
        "adminLevel": 7,
        "adminType": "village",
        "villageNumber": 66,
        "name": "Kidangoor",
        "taluk": "Meenachil",
        "district": "Kottayam",
        "color": "#c8e6c9",
        "center": [
          76.62,
          9.68
        ],
        "isPrimaryDistrict": true
      },
      "geometry": {
        "type": "Polygon",
        "coordinates": [
          [
            [
              76.598,
              9.662
            ],
            [
              76.642,
              9.662
            ],
            [
              76.6398,
              9.698
            ],
            [
              76.6002,
              9.698
            ],
            [
              76.598,
              9.662
            ]
          ]
        ]
      }
    },
    {
      "type": "Feature",
      "id": "village_67",
      "properties": {
        "adminLevel": 7,
        "adminType": "village",
        "villageNumber": 67,
        "name": "Karoor",
        "taluk": "Meenachil",
        "district": "Kottayam",
        "color": "#c8e6c9",
        "center": [
          76.68,
          9.67
        ],
        "isPrimaryDistrict": true
      },
      "geometry": {
        "type": "Polygon",
        "coordinates": [
          [
            [
              76.658,
              9.652
            ],
            [
              76.702,
              9.652
            ],
            [
              76.6998,
              9.688
            ],
            [
              76.6602,
              9.688
            ],
            [
              76.658,
              9.652
            ]
          ]
        ]
      }
    },
    {
      "type": "Feature",
      "id": "village_68",
      "properties": {
        "adminLevel": 7,
        "adminType": "village",
        "villageNumber": 68,
        "name": "Elikulam",
        "taluk": "Meenachil",
        "district": "Kottayam",
        "color": "#c8e6c9",
        "center": [
          76.74,
          9.65
        ],
        "isPrimaryDistrict": true
      },
      "geometry": {
        "type": "Polygon",
        "coordinates": [
          [
            [
              76.718,
              9.632
            ],
            [
              76.762,
              9.632
            ],
            [
              76.7598,
              9.668
            ],
            [
              76.7202,
              9.668
            ],
            [
              76.718,
              9.632
            ]
          ]
        ]
      }
    },
    {
      "type": "Feature",
      "id": "taluk_kottayam",
      "properties": {
        "adminLevel": 6,
        "adminType": "taluk",
        "name": "Kottayam Taluk",
        "taluk": "Kottayam",
        "district": "Kottayam",
        "lgdCode": "05633",
        "census2011Code": "05633",
        "color": "#f3c4db",
        "center": [
          76.52,
          9.59
        ],
        "headquarters": "Kottayam Mini Civil Station",
        "areaKm2": 345,
        "population": 532000,
        "isPrimaryDistrict": true
      },
      "geometry": {
        "type": "Polygon",
        "coordinates": [
          [
            [
              76.38,
              9.67
            ],
            [
              76.43,
              9.67
            ],
            [
              76.49,
              9.68
            ],
            [
              76.52,
              9.65
            ],
            [
              76.58,
              9.64
            ],
            [
              76.64,
              9.63
            ],
            [
              76.64,
              9.58
            ],
            [
              76.63,
              9.52
            ],
            [
              76.62,
              9.48
            ],
            [
              76.58,
              9.48
            ],
            [
              76.53,
              9.49
            ],
            [
              76.48,
              9.49
            ],
            [
              76.44,
              9.5
            ],
            [
              76.41,
              9.54
            ],
            [
              76.39,
              9.58
            ],
            [
              76.38,
              9.62
            ],
            [
              76.38,
              9.67
            ]
          ]
        ]
      }
    },
    {
      "type": "Feature",
      "id": "village_27",
      "properties": {
        "adminLevel": 7,
        "adminType": "village",
        "villageNumber": 27,
        "name": "Kumarakom",
        "taluk": "Kottayam",
        "district": "Kottayam",
        "color": "#f3c4db",
        "center": [
          76.41,
          9.63
        ],
        "isPrimaryDistrict": true
      },
      "geometry": {
        "type": "Polygon",
        "coordinates": [
          [
            [
              76.388,
              9.612
            ],
            [
              76.432,
              9.612
            ],
            [
              76.4298,
              9.648
            ],
            [
              76.3902,
              9.648
            ],
            [
              76.388,
              9.612
            ]
          ]
        ]
      }
    },
    {
      "type": "Feature",
      "id": "village_28",
      "properties": {
        "adminLevel": 7,
        "adminType": "village",
        "villageNumber": 28,
        "name": "Aimanam",
        "taluk": "Kottayam",
        "district": "Kottayam",
        "color": "#f3c4db",
        "center": [
          76.46,
          9.64
        ],
        "isPrimaryDistrict": true
      },
      "geometry": {
        "type": "Polygon",
        "coordinates": [
          [
            [
              76.438,
              9.622
            ],
            [
              76.482,
              9.622
            ],
            [
              76.4798,
              9.658
            ],
            [
              76.4402,
              9.658
            ],
            [
              76.438,
              9.622
            ]
          ]
        ]
      }
    },
    {
      "type": "Feature",
      "id": "village_29",
      "properties": {
        "adminLevel": 7,
        "adminType": "village",
        "villageNumber": 29,
        "name": "Kaipuzha",
        "taluk": "Kottayam",
        "district": "Kottayam",
        "color": "#f3c4db",
        "center": [
          76.51,
          9.64
        ],
        "isPrimaryDistrict": true
      },
      "geometry": {
        "type": "Polygon",
        "coordinates": [
          [
            [
              76.488,
              9.622
            ],
            [
              76.532,
              9.622
            ],
            [
              76.5298,
              9.658
            ],
            [
              76.4902,
              9.658
            ],
            [
              76.488,
              9.622
            ]
          ]
        ]
      }
    },
    {
      "type": "Feature",
      "id": "village_30",
      "properties": {
        "adminLevel": 7,
        "adminType": "village",
        "villageNumber": 30,
        "name": "Athirampuzha",
        "taluk": "Kottayam",
        "district": "Kottayam",
        "color": "#f3c4db",
        "center": [
          76.56,
          9.63
        ],
        "isPrimaryDistrict": true
      },
      "geometry": {
        "type": "Polygon",
        "coordinates": [
          [
            [
              76.538,
              9.612
            ],
            [
              76.582,
              9.612
            ],
            [
              76.5798,
              9.648
            ],
            [
              76.5402,
              9.648
            ],
            [
              76.538,
              9.612
            ]
          ]
        ]
      }
    },
    {
      "type": "Feature",
      "id": "village_31",
      "properties": {
        "adminLevel": 7,
        "adminType": "village",
        "villageNumber": 31,
        "name": "Perumbaikad",
        "taluk": "Kottayam",
        "district": "Kottayam",
        "color": "#f3c4db",
        "center": [
          76.61,
          9.62
        ],
        "isPrimaryDistrict": true
      },
      "geometry": {
        "type": "Polygon",
        "coordinates": [
          [
            [
              76.588,
              9.602
            ],
            [
              76.632,
              9.602
            ],
            [
              76.6298,
              9.638
            ],
            [
              76.5902,
              9.638
            ],
            [
              76.588,
              9.602
            ]
          ]
        ]
      }
    },
    {
      "type": "Feature",
      "id": "village_32",
      "properties": {
        "adminLevel": 7,
        "adminType": "village",
        "villageNumber": 32,
        "name": "Arpookara",
        "taluk": "Kottayam",
        "district": "Kottayam",
        "color": "#f3c4db",
        "center": [
          76.44,
          9.58
        ],
        "isPrimaryDistrict": true
      },
      "geometry": {
        "type": "Polygon",
        "coordinates": [
          [
            [
              76.418,
              9.562
            ],
            [
              76.462,
              9.562
            ],
            [
              76.4598,
              9.598
            ],
            [
              76.4202,
              9.598
            ],
            [
              76.418,
              9.562
            ]
          ]
        ]
      }
    },
    {
      "type": "Feature",
      "id": "village_33",
      "properties": {
        "adminLevel": 7,
        "adminType": "village",
        "villageNumber": 33,
        "name": "Kottayam Town",
        "taluk": "Kottayam",
        "district": "Kottayam",
        "color": "#f3c4db",
        "center": [
          76.5,
          9.58
        ],
        "isPrimaryDistrict": true
      },
      "geometry": {
        "type": "Polygon",
        "coordinates": [
          [
            [
              76.478,
              9.562
            ],
            [
              76.522,
              9.562
            ],
            [
              76.5198,
              9.598
            ],
            [
              76.4802,
              9.598
            ],
            [
              76.478,
              9.562
            ]
          ]
        ]
      }
    },
    {
      "type": "Feature",
      "id": "village_34",
      "properties": {
        "adminLevel": 7,
        "adminType": "village",
        "villageNumber": 34,
        "name": "Nattakom",
        "taluk": "Kottayam",
        "district": "Kottayam",
        "color": "#f3c4db",
        "center": [
          76.55,
          9.58
        ],
        "isPrimaryDistrict": true
      },
      "geometry": {
        "type": "Polygon",
        "coordinates": [
          [
            [
              76.528,
              9.562
            ],
            [
              76.572,
              9.562
            ],
            [
              76.5698,
              9.598
            ],
            [
              76.5302,
              9.598
            ],
            [
              76.528,
              9.562
            ]
          ]
        ]
      }
    },
    {
      "type": "Feature",
      "id": "village_35",
      "properties": {
        "adminLevel": 7,
        "adminType": "village",
        "villageNumber": 35,
        "name": "Panachikkad",
        "taluk": "Kottayam",
        "district": "Kottayam",
        "color": "#f3c4db",
        "center": [
          76.6,
          9.57
        ],
        "isPrimaryDistrict": true
      },
      "geometry": {
        "type": "Polygon",
        "coordinates": [
          [
            [
              76.578,
              9.552
            ],
            [
              76.622,
              9.552
            ],
            [
              76.6198,
              9.588
            ],
            [
              76.5802,
              9.588
            ],
            [
              76.578,
              9.552
            ]
          ]
        ]
      }
    },
    {
      "type": "Feature",
      "id": "village_36",
      "properties": {
        "adminLevel": 7,
        "adminType": "village",
        "villageNumber": 36,
        "name": "Vijayapuram",
        "taluk": "Kottayam",
        "district": "Kottayam",
        "color": "#f3c4db",
        "center": [
          76.46,
          9.53
        ],
        "isPrimaryDistrict": true
      },
      "geometry": {
        "type": "Polygon",
        "coordinates": [
          [
            [
              76.438,
              9.512
            ],
            [
              76.482,
              9.512
            ],
            [
              76.4798,
              9.548
            ],
            [
              76.4402,
              9.548
            ],
            [
              76.438,
              9.512
            ]
          ]
        ]
      }
    },
    {
      "type": "Feature",
      "id": "village_37",
      "properties": {
        "adminLevel": 7,
        "adminType": "village",
        "villageNumber": 37,
        "name": "Manarcad",
        "taluk": "Kottayam",
        "district": "Kottayam",
        "color": "#f3c4db",
        "center": [
          76.51,
          9.53
        ],
        "isPrimaryDistrict": true
      },
      "geometry": {
        "type": "Polygon",
        "coordinates": [
          [
            [
              76.488,
              9.512
            ],
            [
              76.532,
              9.512
            ],
            [
              76.5298,
              9.548
            ],
            [
              76.4902,
              9.548
            ],
            [
              76.488,
              9.512
            ]
          ]
        ]
      }
    },
    {
      "type": "Feature",
      "id": "village_38",
      "properties": {
        "adminLevel": 7,
        "adminType": "village",
        "villageNumber": 38,
        "name": "Ayarkunnam",
        "taluk": "Kottayam",
        "district": "Kottayam",
        "color": "#f3c4db",
        "center": [
          76.57,
          9.53
        ],
        "isPrimaryDistrict": true
      },
      "geometry": {
        "type": "Polygon",
        "coordinates": [
          [
            [
              76.548,
              9.512
            ],
            [
              76.592,
              9.512
            ],
            [
              76.5898,
              9.548
            ],
            [
              76.5502,
              9.548
            ],
            [
              76.548,
              9.512
            ]
          ]
        ]
      }
    },
    {
      "type": "Feature",
      "id": "village_39",
      "properties": {
        "adminLevel": 7,
        "adminType": "village",
        "villageNumber": 39,
        "name": "Puthuppally",
        "taluk": "Kottayam",
        "district": "Kottayam",
        "color": "#f3c4db",
        "center": [
          76.61,
          9.51
        ],
        "isPrimaryDistrict": true
      },
      "geometry": {
        "type": "Polygon",
        "coordinates": [
          [
            [
              76.588,
              9.492
            ],
            [
              76.632,
              9.492
            ],
            [
              76.6298,
              9.528
            ],
            [
              76.5902,
              9.528
            ],
            [
              76.588,
              9.492
            ]
          ]
        ]
      }
    },
    {
      "type": "Feature",
      "id": "taluk_changanassery",
      "properties": {
        "adminLevel": 6,
        "adminType": "taluk",
        "name": "Changanassery Taluk",
        "taluk": "Changanassery",
        "district": "Kottayam",
        "lgdCode": "05634",
        "census2011Code": "05634",
        "color": "#b3e5fc",
        "center": [
          76.54,
          9.44
        ],
        "headquarters": "Changanassery Taluk Office",
        "areaKm2": 242,
        "population": 395000,
        "isPrimaryDistrict": true
      },
      "geometry": {
        "type": "Polygon",
        "coordinates": [
          [
            [
              76.44,
              9.5
            ],
            [
              76.48,
              9.49
            ],
            [
              76.53,
              9.49
            ],
            [
              76.58,
              9.48
            ],
            [
              76.62,
              9.48
            ],
            [
              76.63,
              9.43
            ],
            [
              76.64,
              9.38
            ],
            [
              76.64,
              9.34
            ],
            [
              76.58,
              9.35
            ],
            [
              76.52,
              9.36
            ],
            [
              76.46,
              9.38
            ],
            [
              76.44,
              9.43
            ],
            [
              76.44,
              9.5
            ]
          ]
        ]
      }
    },
    {
      "type": "Feature",
      "id": "village_1",
      "properties": {
        "adminLevel": 7,
        "adminType": "village",
        "villageNumber": 1,
        "name": "Changanassery",
        "taluk": "Changanassery",
        "district": "Kottayam",
        "color": "#b3e5fc",
        "center": [
          76.48,
          9.47
        ],
        "isPrimaryDistrict": true
      },
      "geometry": {
        "type": "Polygon",
        "coordinates": [
          [
            [
              76.458,
              9.452
            ],
            [
              76.502,
              9.452
            ],
            [
              76.4998,
              9.488
            ],
            [
              76.4602,
              9.488
            ],
            [
              76.458,
              9.452
            ]
          ]
        ]
      }
    },
    {
      "type": "Feature",
      "id": "village_2",
      "properties": {
        "adminLevel": 7,
        "adminType": "village",
        "villageNumber": 2,
        "name": "Vazhappally East",
        "taluk": "Changanassery",
        "district": "Kottayam",
        "color": "#b3e5fc",
        "center": [
          76.53,
          9.47
        ],
        "isPrimaryDistrict": true
      },
      "geometry": {
        "type": "Polygon",
        "coordinates": [
          [
            [
              76.508,
              9.452
            ],
            [
              76.552,
              9.452
            ],
            [
              76.5498,
              9.488
            ],
            [
              76.5102,
              9.488
            ],
            [
              76.508,
              9.452
            ]
          ]
        ]
      }
    },
    {
      "type": "Feature",
      "id": "village_3",
      "properties": {
        "adminLevel": 7,
        "adminType": "village",
        "villageNumber": 3,
        "name": "Kurichy",
        "taluk": "Changanassery",
        "district": "Kottayam",
        "color": "#b3e5fc",
        "center": [
          76.58,
          9.46
        ],
        "isPrimaryDistrict": true
      },
      "geometry": {
        "type": "Polygon",
        "coordinates": [
          [
            [
              76.558,
              9.442
            ],
            [
              76.602,
              9.442
            ],
            [
              76.5998,
              9.478
            ],
            [
              76.5602,
              9.478
            ],
            [
              76.558,
              9.442
            ]
          ]
        ]
      }
    },
    {
      "type": "Feature",
      "id": "village_4",
      "properties": {
        "adminLevel": 7,
        "adminType": "village",
        "villageNumber": 4,
        "name": "Chethipuzha",
        "taluk": "Changanassery",
        "district": "Kottayam",
        "color": "#b3e5fc",
        "center": [
          76.48,
          9.42
        ],
        "isPrimaryDistrict": true
      },
      "geometry": {
        "type": "Polygon",
        "coordinates": [
          [
            [
              76.458,
              9.402
            ],
            [
              76.502,
              9.402
            ],
            [
              76.4998,
              9.438
            ],
            [
              76.4602,
              9.438
            ],
            [
              76.458,
              9.402
            ]
          ]
        ]
      }
    },
    {
      "type": "Feature",
      "id": "village_5",
      "properties": {
        "adminLevel": 7,
        "adminType": "village",
        "villageNumber": 5,
        "name": "Madappally",
        "taluk": "Changanassery",
        "district": "Kottayam",
        "color": "#b3e5fc",
        "center": [
          76.54,
          9.42
        ],
        "isPrimaryDistrict": true
      },
      "geometry": {
        "type": "Polygon",
        "coordinates": [
          [
            [
              76.518,
              9.402
            ],
            [
              76.562,
              9.402
            ],
            [
              76.5598,
              9.438
            ],
            [
              76.5202,
              9.438
            ],
            [
              76.518,
              9.402
            ]
          ]
        ]
      }
    },
    {
      "type": "Feature",
      "id": "village_6",
      "properties": {
        "adminLevel": 7,
        "adminType": "village",
        "villageNumber": 6,
        "name": "Thrikkodithanam",
        "taluk": "Changanassery",
        "district": "Kottayam",
        "color": "#b3e5fc",
        "center": [
          76.6,
          9.42
        ],
        "isPrimaryDistrict": true
      },
      "geometry": {
        "type": "Polygon",
        "coordinates": [
          [
            [
              76.578,
              9.402
            ],
            [
              76.622,
              9.402
            ],
            [
              76.6198,
              9.438
            ],
            [
              76.5802,
              9.438
            ],
            [
              76.578,
              9.402
            ]
          ]
        ]
      }
    },
    {
      "type": "Feature",
      "id": "village_7",
      "properties": {
        "adminLevel": 7,
        "adminType": "village",
        "villageNumber": 7,
        "name": "Paippad",
        "taluk": "Changanassery",
        "district": "Kottayam",
        "color": "#b3e5fc",
        "center": [
          76.5,
          9.37
        ],
        "isPrimaryDistrict": true
      },
      "geometry": {
        "type": "Polygon",
        "coordinates": [
          [
            [
              76.478,
              9.352
            ],
            [
              76.522,
              9.352
            ],
            [
              76.5198,
              9.388
            ],
            [
              76.4802,
              9.388
            ],
            [
              76.478,
              9.352
            ]
          ]
        ]
      }
    },
    {
      "type": "Feature",
      "id": "village_8",
      "properties": {
        "adminLevel": 7,
        "adminType": "village",
        "villageNumber": 8,
        "name": "Kangazha",
        "taluk": "Changanassery",
        "district": "Kottayam",
        "color": "#b3e5fc",
        "center": [
          76.56,
          9.37
        ],
        "isPrimaryDistrict": true
      },
      "geometry": {
        "type": "Polygon",
        "coordinates": [
          [
            [
              76.538,
              9.352
            ],
            [
              76.582,
              9.352
            ],
            [
              76.5798,
              9.388
            ],
            [
              76.5402,
              9.388
            ],
            [
              76.538,
              9.352
            ]
          ]
        ]
      }
    },
    {
      "type": "Feature",
      "id": "village_9",
      "properties": {
        "adminLevel": 7,
        "adminType": "village",
        "villageNumber": 9,
        "name": "Nedumkunnam South",
        "taluk": "Changanassery",
        "district": "Kottayam",
        "color": "#b3e5fc",
        "center": [
          76.61,
          9.37
        ],
        "isPrimaryDistrict": true
      },
      "geometry": {
        "type": "Polygon",
        "coordinates": [
          [
            [
              76.588,
              9.352
            ],
            [
              76.632,
              9.352
            ],
            [
              76.6298,
              9.388
            ],
            [
              76.5902,
              9.388
            ],
            [
              76.588,
              9.352
            ]
          ]
        ]
      }
    },
    {
      "type": "Feature",
      "id": "taluk_kanjirapally",
      "properties": {
        "adminLevel": 6,
        "adminType": "taluk",
        "name": "Kanjirapally Taluk",
        "taluk": "Kanjirapally",
        "district": "Kottayam",
        "lgdCode": "05635",
        "census2011Code": "05635",
        "color": "#ffe0b2",
        "center": [
          76.76,
          9.52
        ],
        "headquarters": "Kanjirappally Mini Civil Station",
        "areaKm2": 565,
        "population": 380000,
        "isPrimaryDistrict": true
      },
      "geometry": {
        "type": "Polygon",
        "coordinates": [
          [
            [
              76.64,
              9.63
            ],
            [
              76.72,
              9.63
            ],
            [
              76.78,
              9.62
            ],
            [
              76.85,
              9.62
            ],
            [
              76.89,
              9.58
            ],
            [
              76.92,
              9.52
            ],
            [
              76.92,
              9.45
            ],
            [
              76.88,
              9.39
            ],
            [
              76.82,
              9.36
            ],
            [
              76.75,
              9.35
            ],
            [
              76.68,
              9.34
            ],
            [
              76.64,
              9.34
            ],
            [
              76.64,
              9.38
            ],
            [
              76.63,
              9.43
            ],
            [
              76.62,
              9.48
            ],
            [
              76.63,
              9.52
            ],
            [
              76.64,
              9.58
            ],
            [
              76.64,
              9.63
            ]
          ]
        ]
      }
    },
    {
      "type": "Feature",
      "id": "village_16",
      "properties": {
        "adminLevel": 7,
        "adminType": "village",
        "villageNumber": 16,
        "name": "Kanjirappally",
        "taluk": "Kanjirapally",
        "district": "Kottayam",
        "color": "#ffe0b2",
        "center": [
          76.7,
          9.58
        ],
        "isPrimaryDistrict": true
      },
      "geometry": {
        "type": "Polygon",
        "coordinates": [
          [
            [
              76.678,
              9.562
            ],
            [
              76.722,
              9.562
            ],
            [
              76.7198,
              9.598
            ],
            [
              76.6802,
              9.598
            ],
            [
              76.678,
              9.562
            ]
          ]
        ]
      }
    },
    {
      "type": "Feature",
      "id": "village_17",
      "properties": {
        "adminLevel": 7,
        "adminType": "village",
        "villageNumber": 17,
        "name": "Chirakkadavu",
        "taluk": "Kanjirapally",
        "district": "Kottayam",
        "color": "#ffe0b2",
        "center": [
          76.78,
          9.58
        ],
        "isPrimaryDistrict": true
      },
      "geometry": {
        "type": "Polygon",
        "coordinates": [
          [
            [
              76.758,
              9.562
            ],
            [
              76.802,
              9.562
            ],
            [
              76.7998,
              9.598
            ],
            [
              76.7602,
              9.598
            ],
            [
              76.758,
              9.562
            ]
          ]
        ]
      }
    },
    {
      "type": "Feature",
      "id": "village_18",
      "properties": {
        "adminLevel": 7,
        "adminType": "village",
        "villageNumber": 18,
        "name": "Cheruvally",
        "taluk": "Kanjirapally",
        "district": "Kottayam",
        "color": "#ffe0b2",
        "center": [
          76.85,
          9.56
        ],
        "isPrimaryDistrict": true
      },
      "geometry": {
        "type": "Polygon",
        "coordinates": [
          [
            [
              76.828,
              9.542
            ],
            [
              76.872,
              9.542
            ],
            [
              76.8698,
              9.578
            ],
            [
              76.8302,
              9.578
            ],
            [
              76.828,
              9.542
            ]
          ]
        ]
      }
    },
    {
      "type": "Feature",
      "id": "village_19",
      "properties": {
        "adminLevel": 7,
        "adminType": "village",
        "villageNumber": 19,
        "name": "Koottickal",
        "taluk": "Kanjirapally",
        "district": "Kottayam",
        "color": "#ffe0b2",
        "center": [
          76.89,
          9.53
        ],
        "isPrimaryDistrict": true
      },
      "geometry": {
        "type": "Polygon",
        "coordinates": [
          [
            [
              76.868,
              9.512
            ],
            [
              76.912,
              9.512
            ],
            [
              76.9098,
              9.548
            ],
            [
              76.8702,
              9.548
            ],
            [
              76.868,
              9.512
            ]
          ]
        ]
      }
    },
    {
      "type": "Feature",
      "id": "village_20",
      "properties": {
        "adminLevel": 7,
        "adminType": "village",
        "villageNumber": 20,
        "name": "Mundakayam",
        "taluk": "Kanjirapally",
        "district": "Kottayam",
        "color": "#ffe0b2",
        "center": [
          76.71,
          9.5
        ],
        "isPrimaryDistrict": true
      },
      "geometry": {
        "type": "Polygon",
        "coordinates": [
          [
            [
              76.688,
              9.482
            ],
            [
              76.732,
              9.482
            ],
            [
              76.7298,
              9.518
            ],
            [
              76.6902,
              9.518
            ],
            [
              76.688,
              9.482
            ]
          ]
        ]
      }
    },
    {
      "type": "Feature",
      "id": "village_21",
      "properties": {
        "adminLevel": 7,
        "adminType": "village",
        "villageNumber": 21,
        "name": "Erumely North",
        "taluk": "Kanjirapally",
        "district": "Kottayam",
        "color": "#ffe0b2",
        "center": [
          76.78,
          9.49
        ],
        "isPrimaryDistrict": true
      },
      "geometry": {
        "type": "Polygon",
        "coordinates": [
          [
            [
              76.758,
              9.472
            ],
            [
              76.802,
              9.472
            ],
            [
              76.7998,
              9.508
            ],
            [
              76.7602,
              9.508
            ],
            [
              76.758,
              9.472
            ]
          ]
        ]
      }
    },
    {
      "type": "Feature",
      "id": "village_22",
      "properties": {
        "adminLevel": 7,
        "adminType": "village",
        "villageNumber": 22,
        "name": "Erumely South",
        "taluk": "Kanjirapally",
        "district": "Kottayam",
        "color": "#ffe0b2",
        "center": [
          76.85,
          9.47
        ],
        "isPrimaryDistrict": true
      },
      "geometry": {
        "type": "Polygon",
        "coordinates": [
          [
            [
              76.828,
              9.452
            ],
            [
              76.872,
              9.452
            ],
            [
              76.8698,
              9.488
            ],
            [
              76.8302,
              9.488
            ],
            [
              76.828,
              9.452
            ]
          ]
        ]
      }
    },
    {
      "type": "Feature",
      "id": "village_23",
      "properties": {
        "adminLevel": 7,
        "adminType": "village",
        "villageNumber": 23,
        "name": "Manimala",
        "taluk": "Kanjirapally",
        "district": "Kottayam",
        "color": "#ffe0b2",
        "center": [
          76.72,
          9.42
        ],
        "isPrimaryDistrict": true
      },
      "geometry": {
        "type": "Polygon",
        "coordinates": [
          [
            [
              76.698,
              9.402
            ],
            [
              76.742,
              9.402
            ],
            [
              76.7398,
              9.438
            ],
            [
              76.7002,
              9.438
            ],
            [
              76.698,
              9.402
            ]
          ]
        ]
      }
    },
    {
      "type": "Feature",
      "id": "village_24",
      "properties": {
        "adminLevel": 7,
        "adminType": "village",
        "villageNumber": 24,
        "name": "Elangulam",
        "taluk": "Kanjirapally",
        "district": "Kottayam",
        "color": "#ffe0b2",
        "center": [
          76.79,
          9.42
        ],
        "isPrimaryDistrict": true
      },
      "geometry": {
        "type": "Polygon",
        "coordinates": [
          [
            [
              76.768,
              9.402
            ],
            [
              76.812,
              9.402
            ],
            [
              76.8098,
              9.438
            ],
            [
              76.7702,
              9.438
            ],
            [
              76.768,
              9.402
            ]
          ]
        ]
      }
    },
    {
      "type": "Feature",
      "id": "village_25",
      "properties": {
        "adminLevel": 7,
        "adminType": "village",
        "villageNumber": 25,
        "name": "Koratty",
        "taluk": "Kanjirapally",
        "district": "Kottayam",
        "color": "#ffe0b2",
        "center": [
          76.86,
          9.4
        ],
        "isPrimaryDistrict": true
      },
      "geometry": {
        "type": "Polygon",
        "coordinates": [
          [
            [
              76.838,
              9.382
            ],
            [
              76.882,
              9.382
            ],
            [
              76.8798,
              9.418
            ],
            [
              76.8402,
              9.418
            ],
            [
              76.838,
              9.382
            ]
          ]
        ]
      }
    },
    {
      "type": "Feature",
      "id": "district_ernakulam",
      "properties": {
        "adminLevel": 5,
        "adminType": "adjacent_district",
        "name": "Ernakulam",
        "district": "Ernakulam",
        "lgdCode": 558,
        "census2011Code": 590,
        "color": "#d7edd9",
        "center": [
          76.35,
          10.05
        ],
        "areaKm2": 3068,
        "population": 3427659,
        "headquarters": "Kakkanad Civil Station",
        "isPrimaryDistrict": false
      },
      "geometry": {
        "type": "Polygon",
        "coordinates": [
          [
            [
              76.15,
              9.9
            ],
            [
              76.22,
              10.15
            ],
            [
              76.35,
              10.22
            ],
            [
              76.6,
              10.18
            ],
            [
              76.72,
              10.05
            ],
            [
              76.68,
              9.85
            ],
            [
              76.65,
              9.84
            ],
            [
              76.58,
              9.84
            ],
            [
              76.53,
              9.82
            ],
            [
              76.48,
              9.84
            ],
            [
              76.43,
              9.85
            ],
            [
              76.38,
              9.85
            ],
            [
              76.35,
              9.82
            ],
            [
              76.25,
              9.75
            ],
            [
              76.15,
              9.9
            ]
          ]
        ]
      }
    },
    {
      "type": "Feature",
      "id": "taluk_ernakulam_kochi",
      "properties": {
        "adminLevel": 6,
        "adminType": "adjacent_taluk",
        "name": "Kochi Taluk",
        "taluk": "Kochi",
        "district": "Ernakulam",
        "color": "#d7edd9",
        "center": [
          76.23,
          9.93
        ],
        "isPrimaryDistrict": false
      },
      "geometry": {
        "type": "Polygon",
        "coordinates": [
          [
            [
              76.16,
              9.875
            ],
            [
              76.3,
              9.875
            ],
            [
              76.2965,
              9.985
            ],
            [
              76.1635,
              9.985
            ],
            [
              76.16,
              9.875
            ]
          ]
        ]
      }
    },
    {
      "type": "Feature",
      "id": "taluk_ernakulam_kanayannur",
      "properties": {
        "adminLevel": 6,
        "adminType": "adjacent_taluk",
        "name": "Kanayannur Taluk",
        "taluk": "Kanayannur",
        "district": "Ernakulam",
        "color": "#c9e6cc",
        "center": [
          76.33,
          9.98
        ],
        "isPrimaryDistrict": false
      },
      "geometry": {
        "type": "Polygon",
        "coordinates": [
          [
            [
              76.26,
              9.925
            ],
            [
              76.4,
              9.925
            ],
            [
              76.3965,
              10.035
            ],
            [
              76.2635,
              10.035
            ],
            [
              76.26,
              9.925
            ]
          ]
        ]
      }
    },
    {
      "type": "Feature",
      "id": "taluk_ernakulam_aluva",
      "properties": {
        "adminLevel": 6,
        "adminType": "adjacent_taluk",
        "name": "Aluva Taluk",
        "taluk": "Aluva",
        "district": "Ernakulam",
        "color": "#e2f4e4",
        "center": [
          76.35,
          10.11
        ],
        "isPrimaryDistrict": false
      },
      "geometry": {
        "type": "Polygon",
        "coordinates": [
          [
            [
              76.28,
              10.055
            ],
            [
              76.42,
              10.055
            ],
            [
              76.4165,
              10.165
            ],
            [
              76.2835,
              10.165
            ],
            [
              76.28,
              10.055
            ]
          ]
        ]
      }
    },
    {
      "type": "Feature",
      "id": "taluk_ernakulam_paravur",
      "properties": {
        "adminLevel": 6,
        "adminType": "adjacent_taluk",
        "name": "Paravur Taluk",
        "taluk": "Paravur",
        "district": "Ernakulam",
        "color": "#c0e0c3",
        "center": [
          76.23,
          10.14
        ],
        "isPrimaryDistrict": false
      },
      "geometry": {
        "type": "Polygon",
        "coordinates": [
          [
            [
              76.16,
              10.085
            ],
            [
              76.3,
              10.085
            ],
            [
              76.2965,
              10.195
            ],
            [
              76.1635,
              10.195
            ],
            [
              76.16,
              10.085
            ]
          ]
        ]
      }
    },
    {
      "type": "Feature",
      "id": "taluk_ernakulam_kunnathunad",
      "properties": {
        "adminLevel": 6,
        "adminType": "adjacent_taluk",
        "name": "Kunnathunad Taluk",
        "taluk": "Kunnathunad",
        "district": "Ernakulam",
        "color": "#dcf0de",
        "center": [
          76.48,
          10.03
        ],
        "isPrimaryDistrict": false
      },
      "geometry": {
        "type": "Polygon",
        "coordinates": [
          [
            [
              76.41,
              9.975
            ],
            [
              76.55,
              9.975
            ],
            [
              76.5465,
              10.085
            ],
            [
              76.4135,
              10.085
            ],
            [
              76.41,
              9.975
            ]
          ]
        ]
      }
    },
    {
      "type": "Feature",
      "id": "taluk_ernakulam_muvattupuzha",
      "properties": {
        "adminLevel": 6,
        "adminType": "adjacent_taluk",
        "name": "Muvattupuzha Taluk",
        "taluk": "Muvattupuzha",
        "district": "Ernakulam",
        "color": "#cee8d1",
        "center": [
          76.58,
          9.98
        ],
        "isPrimaryDistrict": false
      },
      "geometry": {
        "type": "Polygon",
        "coordinates": [
          [
            [
              76.51,
              9.925
            ],
            [
              76.65,
              9.925
            ],
            [
              76.6465,
              10.035
            ],
            [
              76.5135,
              10.035
            ],
            [
              76.51,
              9.925
            ]
          ]
        ]
      }
    },
    {
      "type": "Feature",
      "id": "taluk_ernakulam_kothamangalam",
      "properties": {
        "adminLevel": 6,
        "adminType": "adjacent_taluk",
        "name": "Kothamangalam Taluk",
        "taluk": "Kothamangalam",
        "district": "Ernakulam",
        "color": "#e5f6e7",
        "center": [
          76.65,
          10.06
        ],
        "isPrimaryDistrict": false
      },
      "geometry": {
        "type": "Polygon",
        "coordinates": [
          [
            [
              76.58,
              10.005
            ],
            [
              76.72,
              10.005
            ],
            [
              76.7165,
              10.115
            ],
            [
              76.5835,
              10.115
            ],
            [
              76.58,
              10.005
            ]
          ]
        ]
      }
    },
    {
      "type": "Feature",
      "id": "district_idukki",
      "properties": {
        "adminLevel": 5,
        "adminType": "adjacent_district",
        "name": "Idukki",
        "district": "Idukki",
        "lgdCode": 559,
        "census2011Code": 591,
        "color": "#e1bee7",
        "center": [
          77.05,
          9.88
        ],
        "areaKm2": 4358,
        "population": 1108974,
        "headquarters": "Kuyilimala Collectorate, Painavu",
        "isPrimaryDistrict": false
      },
      "geometry": {
        "type": "Polygon",
        "coordinates": [
          [
            [
              76.68,
              9.85
            ],
            [
              76.72,
              10.05
            ],
            [
              77.05,
              10.25
            ],
            [
              77.25,
              10.15
            ],
            [
              77.3,
              9.85
            ],
            [
              77.2,
              9.6
            ],
            [
              77.05,
              9.45
            ],
            [
              76.88,
              9.39
            ],
            [
              76.92,
              9.45
            ],
            [
              76.92,
              9.52
            ],
            [
              76.89,
              9.58
            ],
            [
              76.85,
              9.62
            ],
            [
              76.88,
              9.65
            ],
            [
              76.89,
              9.71
            ],
            [
              76.84,
              9.75
            ],
            [
              76.78,
              9.78
            ],
            [
              76.72,
              9.81
            ],
            [
              76.68,
              9.85
            ]
          ]
        ]
      }
    },
    {
      "type": "Feature",
      "id": "taluk_idukki_thodupuzha",
      "properties": {
        "adminLevel": 6,
        "adminType": "adjacent_taluk",
        "name": "Thodupuzha Taluk",
        "taluk": "Thodupuzha",
        "district": "Idukki",
        "color": "#e1bee7",
        "center": [
          76.71,
          9.89
        ],
        "isPrimaryDistrict": false
      },
      "geometry": {
        "type": "Polygon",
        "coordinates": [
          [
            [
              76.64,
              9.835
            ],
            [
              76.78,
              9.835
            ],
            [
              76.7765,
              9.945
            ],
            [
              76.6435,
              9.945
            ],
            [
              76.64,
              9.835
            ]
          ]
        ]
      }
    },
    {
      "type": "Feature",
      "id": "taluk_idukki_devikulam",
      "properties": {
        "adminLevel": 6,
        "adminType": "adjacent_taluk",
        "name": "Devikulam Taluk",
        "taluk": "Devikulam",
        "district": "Idukki",
        "color": "#d7addf",
        "center": [
          77.1,
          10.12
        ],
        "isPrimaryDistrict": false
      },
      "geometry": {
        "type": "Polygon",
        "coordinates": [
          [
            [
              77.03,
              10.065
            ],
            [
              77.17,
              10.065
            ],
            [
              77.1665,
              10.175
            ],
            [
              77.0335,
              10.175
            ],
            [
              77.03,
              10.065
            ]
          ]
        ]
      }
    },
    {
      "type": "Feature",
      "id": "taluk_idukki_udumbanchola",
      "properties": {
        "adminLevel": 6,
        "adminType": "adjacent_taluk",
        "name": "Udumbanchola Taluk",
        "taluk": "Udumbanchola",
        "district": "Idukki",
        "color": "#ebd0ef",
        "center": [
          77.17,
          9.88
        ],
        "isPrimaryDistrict": false
      },
      "geometry": {
        "type": "Polygon",
        "coordinates": [
          [
            [
              77.1,
              9.825
            ],
            [
              77.24,
              9.825
            ],
            [
              77.2365,
              9.935
            ],
            [
              77.1035,
              9.935
            ],
            [
              77.1,
              9.825
            ]
          ]
        ]
      }
    },
    {
      "type": "Feature",
      "id": "taluk_idukki_idukki",
      "properties": {
        "adminLevel": 6,
        "adminType": "adjacent_taluk",
        "name": "Idukki Taluk",
        "taluk": "Idukki",
        "district": "Idukki",
        "color": "#e7c6eb",
        "center": [
          76.98,
          9.85
        ],
        "isPrimaryDistrict": false
      },
      "geometry": {
        "type": "Polygon",
        "coordinates": [
          [
            [
              76.91,
              9.795
            ],
            [
              77.05,
              9.795
            ],
            [
              77.0465,
              9.905
            ],
            [
              76.9135,
              9.905
            ],
            [
              76.91,
              9.795
            ]
          ]
        ]
      }
    },
    {
      "type": "Feature",
      "id": "taluk_idukki_peerumade",
      "properties": {
        "adminLevel": 6,
        "adminType": "adjacent_taluk",
        "name": "Peerumade Taluk",
        "taluk": "Peerumade",
        "district": "Idukki",
        "color": "#deb3e5",
        "center": [
          77,
          9.58
        ],
        "isPrimaryDistrict": false
      },
      "geometry": {
        "type": "Polygon",
        "coordinates": [
          [
            [
              76.93,
              9.525
            ],
            [
              77.07,
              9.525
            ],
            [
              77.0665,
              9.635
            ],
            [
              76.9335,
              9.635
            ],
            [
              76.93,
              9.525
            ]
          ]
        ]
      }
    },
    {
      "type": "Feature",
      "id": "district_alappuzha",
      "properties": {
        "adminLevel": 5,
        "adminType": "adjacent_district",
        "name": "Alappuzha",
        "district": "Alappuzha",
        "lgdCode": 555,
        "census2011Code": 587,
        "color": "#b2ebf2",
        "center": [
          76.38,
          9.42
        ],
        "areaKm2": 1414,
        "population": 2127789,
        "headquarters": "Alappuzha Civil Station",
        "isPrimaryDistrict": false
      },
      "geometry": {
        "type": "Polygon",
        "coordinates": [
          [
            [
              76.25,
              9.75
            ],
            [
              76.35,
              9.82
            ],
            [
              76.34,
              9.77
            ],
            [
              76.345,
              9.72
            ],
            [
              76.36,
              9.68
            ],
            [
              76.38,
              9.67
            ],
            [
              76.38,
              9.62
            ],
            [
              76.39,
              9.58
            ],
            [
              76.41,
              9.54
            ],
            [
              76.44,
              9.5
            ],
            [
              76.44,
              9.43
            ],
            [
              76.46,
              9.38
            ],
            [
              76.5,
              9.32
            ],
            [
              76.52,
              9.2
            ],
            [
              76.45,
              9.12
            ],
            [
              76.35,
              9.25
            ],
            [
              76.28,
              9.55
            ],
            [
              76.25,
              9.75
            ]
          ]
        ]
      }
    },
    {
      "type": "Feature",
      "id": "taluk_alappuzha_cherthala",
      "properties": {
        "adminLevel": 6,
        "adminType": "adjacent_taluk",
        "name": "Cherthala Taluk",
        "taluk": "Cherthala",
        "district": "Alappuzha",
        "color": "#b2ebf2",
        "center": [
          76.32,
          9.68
        ],
        "isPrimaryDistrict": false
      },
      "geometry": {
        "type": "Polygon",
        "coordinates": [
          [
            [
              76.25,
              9.625
            ],
            [
              76.39,
              9.625
            ],
            [
              76.3865,
              9.735
            ],
            [
              76.2535,
              9.735
            ],
            [
              76.25,
              9.625
            ]
          ]
        ]
      }
    },
    {
      "type": "Feature",
      "id": "taluk_alappuzha_ambalappuzha",
      "properties": {
        "adminLevel": 6,
        "adminType": "adjacent_taluk",
        "name": "Ambalappuzha Taluk",
        "taluk": "Ambalappuzha",
        "district": "Alappuzha",
        "color": "#a0e4ed",
        "center": [
          76.35,
          9.48
        ],
        "isPrimaryDistrict": false
      },
      "geometry": {
        "type": "Polygon",
        "coordinates": [
          [
            [
              76.28,
              9.425
            ],
            [
              76.42,
              9.425
            ],
            [
              76.4165,
              9.535
            ],
            [
              76.2835,
              9.535
            ],
            [
              76.28,
              9.425
            ]
          ]
        ]
      }
    },
    {
      "type": "Feature",
      "id": "taluk_alappuzha_kuttanad",
      "properties": {
        "adminLevel": 6,
        "adminType": "adjacent_taluk",
        "name": "Kuttanad Taluk",
        "taluk": "Kuttanad",
        "district": "Alappuzha",
        "color": "#c4f0f5",
        "center": [
          76.43,
          9.43
        ],
        "isPrimaryDistrict": false
      },
      "geometry": {
        "type": "Polygon",
        "coordinates": [
          [
            [
              76.36,
              9.375
            ],
            [
              76.5,
              9.375
            ],
            [
              76.4965,
              9.485
            ],
            [
              76.3635,
              9.485
            ],
            [
              76.36,
              9.375
            ]
          ]
        ]
      }
    },
    {
      "type": "Feature",
      "id": "taluk_alappuzha_karthikappally",
      "properties": {
        "adminLevel": 6,
        "adminType": "adjacent_taluk",
        "name": "Karthikappally Taluk",
        "taluk": "Karthikappally",
        "district": "Alappuzha",
        "color": "#97e0ea",
        "center": [
          76.46,
          9.24
        ],
        "isPrimaryDistrict": false
      },
      "geometry": {
        "type": "Polygon",
        "coordinates": [
          [
            [
              76.39,
              9.185
            ],
            [
              76.53,
              9.185
            ],
            [
              76.5265,
              9.295
            ],
            [
              76.3935,
              9.295
            ],
            [
              76.39,
              9.185
            ]
          ]
        ]
      }
    },
    {
      "type": "Feature",
      "id": "taluk_alappuzha_chengannur",
      "properties": {
        "adminLevel": 6,
        "adminType": "adjacent_taluk",
        "name": "Chengannur Taluk",
        "taluk": "Chengannur",
        "district": "Alappuzha",
        "color": "#b8edf3",
        "center": [
          76.58,
          9.31
        ],
        "isPrimaryDistrict": false
      },
      "geometry": {
        "type": "Polygon",
        "coordinates": [
          [
            [
              76.51,
              9.255
            ],
            [
              76.65,
              9.255
            ],
            [
              76.6465,
              9.365
            ],
            [
              76.5135,
              9.365
            ],
            [
              76.51,
              9.255
            ]
          ]
        ]
      }
    },
    {
      "type": "Feature",
      "id": "taluk_alappuzha_mavelikkara",
      "properties": {
        "adminLevel": 6,
        "adminType": "adjacent_taluk",
        "name": "Mavelikkara Taluk",
        "taluk": "Mavelikkara",
        "district": "Alappuzha",
        "color": "#aee8f0",
        "center": [
          76.52,
          9.26
        ],
        "isPrimaryDistrict": false
      },
      "geometry": {
        "type": "Polygon",
        "coordinates": [
          [
            [
              76.45,
              9.205
            ],
            [
              76.59,
              9.205
            ],
            [
              76.5865,
              9.315
            ],
            [
              76.4535,
              9.315
            ],
            [
              76.45,
              9.205
            ]
          ]
        ]
      }
    },
    {
      "type": "Feature",
      "id": "district_pathanamthitta",
      "properties": {
        "adminLevel": 5,
        "adminType": "adjacent_district",
        "name": "Pathanamthitta",
        "district": "Pathanamthitta",
        "lgdCode": 562,
        "census2011Code": 594,
        "color": "#fff9c4",
        "center": [
          76.8,
          9.3
        ],
        "areaKm2": 2637,
        "population": 1197412,
        "headquarters": "Pathanamthitta District Collectorate",
        "isPrimaryDistrict": false
      },
      "geometry": {
        "type": "Polygon",
        "coordinates": [
          [
            [
              76.46,
              9.38
            ],
            [
              76.52,
              9.36
            ],
            [
              76.58,
              9.35
            ],
            [
              76.64,
              9.34
            ],
            [
              76.68,
              9.34
            ],
            [
              76.75,
              9.35
            ],
            [
              76.82,
              9.36
            ],
            [
              76.88,
              9.39
            ],
            [
              77.05,
              9.45
            ],
            [
              77.15,
              9.32
            ],
            [
              76.95,
              9.15
            ],
            [
              76.75,
              9.12
            ],
            [
              76.6,
              9.2
            ],
            [
              76.52,
              9.2
            ],
            [
              76.5,
              9.32
            ],
            [
              76.46,
              9.38
            ]
          ]
        ]
      }
    },
    {
      "type": "Feature",
      "id": "taluk_pathanamthitta_thiruvalla",
      "properties": {
        "adminLevel": 6,
        "adminType": "adjacent_taluk",
        "name": "Thiruvalla Taluk",
        "taluk": "Thiruvalla",
        "district": "Pathanamthitta",
        "color": "#fff9c4",
        "center": [
          76.57,
          9.38
        ],
        "isPrimaryDistrict": false
      },
      "geometry": {
        "type": "Polygon",
        "coordinates": [
          [
            [
              76.5,
              9.325
            ],
            [
              76.64,
              9.325
            ],
            [
              76.6365,
              9.435
            ],
            [
              76.5035,
              9.435
            ],
            [
              76.5,
              9.325
            ]
          ]
        ]
      }
    },
    {
      "type": "Feature",
      "id": "taluk_pathanamthitta_mallappally",
      "properties": {
        "adminLevel": 6,
        "adminType": "adjacent_taluk",
        "name": "Mallappally Taluk",
        "taluk": "Mallappally",
        "district": "Pathanamthitta",
        "color": "#fff5b0",
        "center": [
          76.65,
          9.45
        ],
        "isPrimaryDistrict": false
      },
      "geometry": {
        "type": "Polygon",
        "coordinates": [
          [
            [
              76.58,
              9.395
            ],
            [
              76.72,
              9.395
            ],
            [
              76.7165,
              9.505
            ],
            [
              76.5835,
              9.505
            ],
            [
              76.58,
              9.395
            ]
          ]
        ]
      }
    },
    {
      "type": "Feature",
      "id": "taluk_pathanamthitta_kozhencherry",
      "properties": {
        "adminLevel": 6,
        "adminType": "adjacent_taluk",
        "name": "Kozhencherry Taluk",
        "taluk": "Kozhencherry",
        "district": "Pathanamthitta",
        "color": "#fffbd1",
        "center": [
          76.75,
          9.33
        ],
        "isPrimaryDistrict": false
      },
      "geometry": {
        "type": "Polygon",
        "coordinates": [
          [
            [
              76.68,
              9.275
            ],
            [
              76.82,
              9.275
            ],
            [
              76.8165,
              9.385
            ],
            [
              76.6835,
              9.385
            ],
            [
              76.68,
              9.275
            ]
          ]
        ]
      }
    },
    {
      "type": "Feature",
      "id": "taluk_pathanamthitta_ranni",
      "properties": {
        "adminLevel": 6,
        "adminType": "adjacent_taluk",
        "name": "Ranni Taluk",
        "taluk": "Ranni",
        "district": "Pathanamthitta",
        "color": "#fef19d",
        "center": [
          76.82,
          9.38
        ],
        "isPrimaryDistrict": false
      },
      "geometry": {
        "type": "Polygon",
        "coordinates": [
          [
            [
              76.75,
              9.325
            ],
            [
              76.89,
              9.325
            ],
            [
              76.8865,
              9.435
            ],
            [
              76.7535,
              9.435
            ],
            [
              76.75,
              9.325
            ]
          ]
        ]
      }
    },
    {
      "type": "Feature",
      "id": "taluk_pathanamthitta_konni",
      "properties": {
        "adminLevel": 6,
        "adminType": "adjacent_taluk",
        "name": "Konni Taluk",
        "taluk": "Konni",
        "district": "Pathanamthitta",
        "color": "#fff3a3",
        "center": [
          76.85,
          9.24
        ],
        "isPrimaryDistrict": false
      },
      "geometry": {
        "type": "Polygon",
        "coordinates": [
          [
            [
              76.78,
              9.185
            ],
            [
              76.92,
              9.185
            ],
            [
              76.9165,
              9.295
            ],
            [
              76.7835,
              9.295
            ],
            [
              76.78,
              9.185
            ]
          ]
        ]
      }
    },
    {
      "type": "Feature",
      "id": "taluk_pathanamthitta_adoor",
      "properties": {
        "adminLevel": 6,
        "adminType": "adjacent_taluk",
        "name": "Adoor Taluk",
        "taluk": "Adoor",
        "district": "Pathanamthitta",
        "color": "#fff7ba",
        "center": [
          76.73,
          9.15
        ],
        "isPrimaryDistrict": false
      },
      "geometry": {
        "type": "Polygon",
        "coordinates": [
          [
            [
              76.66,
              9.095
            ],
            [
              76.8,
              9.095
            ],
            [
              76.7965,
              9.205
            ],
            [
              76.6635,
              9.205
            ],
            [
              76.66,
              9.095
            ]
          ]
        ]
      }
    }
  ]
}